STARLINK-36559          
1 67555U 26014Z   26159.83997311  .00018911  00000+0  58704-3 0  9991
2 67555  97.2890  46.6984 0002085  86.9207 273.2274 15.33422160 22748
STARLINK-36426          
1 67560U 26014AA  26159.41578749  .00012226  00000+0  37988-3 0  9995
2 67560  97.2861  46.3556 0000214 151.8225 208.3029 15.33490881 22683
STARLINK-36621          
1 67561U 26016A   26159.73359971  .00023376  00000+0  72397-3 0  9998
2 67561  97.2821 219.8058 0000200 269.1797  90.9423 15.33454330 20811
STARLINK-36398          
1 67562U 26016B   26159.74175591  .00021615  00000+0  66988-3 0  9997
2 67562  97.2859 219.9448 0000875 214.6280 145.4905 15.33448387 20824
STARLINK-36403          
1 67563U 26016C   26159.43451501  .00014156  00000+0  44006-3 0  9991
2 67563  97.2855 219.5997 0001046  98.9932 261.1429 15.33439343 20777
STARLINK-36593          
1 67564U 26016D   26159.43995255  .00015201  00000+0  47225-3 0  9999
2 67564  97.2845 219.5916 0000729  99.1895 260.9431 15.33443857 20771
STARLINK-35725          
1 67565U 26016E   26159.85051522  .00023303  00000+0  72158-3 0  9991
2 67565  97.2848 219.9533 0000973 142.9114 217.2196 15.33459868 20835
STARLINK-36394          
1 67566U 26016F   26159.72272227  .00021743  00000+0  67366-3 0  9996
2 67566  97.2843 219.8207 0001658 282.0815  78.0242 15.33455242 20818
STARLINK-36352          
1 67567U 26016G   26159.42907478  .00017190  00000+0  53371-3 0  9999
2 67567  97.2848 219.6092 0000537 108.6035 251.5266 15.33436555 20771
STARLINK-36435          
1 67568U 26016H   26159.74447654  .00018425  00000+0  57161-3 0  9993
2 67568  97.2826 219.9487 0000973 118.7373 241.3967 15.33447516 20820
STARLINK-36575          
1 67569U 26016J   26159.73507818  .00026434  00000+0  81809-3 0  9997
2 67569  97.2835 220.8702 0000372 121.8358 238.2921 15.33452536 20882
STARLINK-36562          
1 67570U 26016K   26159.16533270  .00020388  00000+0  63229-3 0  9995
2 67570  97.2838 219.3571 0000467 203.1017 157.0205 15.33438064 20732
STARLINK-36578          
1 67571U 26016L   26159.72544282  .00021268  00000+0  65918-3 0  9998
2 67571  97.2843 219.8181 0000793 219.9559 140.1626 15.33447877 20810
STARLINK-36350          
1 67572U 26016M   26159.71456924  .00021925  00000+0  67947-3 0  9997
2 67572  97.2849 219.8327 0000552 125.9317 234.1977 15.33446527 20814
STARLINK-36588          
1 67573U 26016N   26159.71726597  .00026051  00000+0  80561-3 0  9996
2 67573  97.2859 219.8278 0000411 317.9419  42.1792 15.33479639 20813
STARLINK-36594          
1 67574U 26016P   26159.74991608  .00031354  00000+0  96923-3 0  9998
2 67574  97.2842 219.9385 0000877  98.8404 261.2938 15.33453647 20829
STARLINK-36400          
1 67575U 26016Q   26159.44267198  .00014862  00000+0  46178-3 0  9998
2 67575  97.2845 219.5917 0000963  88.2296 271.9057 15.33443887 20777
STARLINK-36591          
1 67576U 26016R   26159.17077308  .00020619  00000+0  63940-3 0  9994
2 67576  97.2841 219.3494 0000630 143.6237 216.5049 15.33439081 20737
STARLINK-36590          
1 67577U 26016S   26159.83691963  .00020756  00000+0  64327-3 0  9999
2 67577  97.2869 219.9757 0000679 175.7697 184.3552 15.33455015 20832
STARLINK-36613          
1 67578U 26016T   26159.73088267  .00032343  00000+0  99943-3 0  9993
2 67578  97.2842 219.8129 0000247 175.3429 184.7816 15.33459041 20814
STARLINK-36571          
1 67579U 26016U   26159.70912984  .00021799  00000+0  67544-3 0  9998
2 67579  97.2865 219.8420 0000351 134.5039 225.6233 15.33453662 20815
STARLINK-36612          
1 67580U 26016V   26159.73903620  .00024926  00000+0  77166-3 0  9996
2 67580  97.2809 219.9531 0001128  94.8697 265.2674 15.33454020 20829
STARLINK-36632          
1 67581U 26016W   26159.43723507  .00016087  00000+0  49964-3 0  9992
2 67581  97.2855 219.5985 0001073  88.3445 271.7921 15.33440028 20772
STARLINK-36609          
1 67582U 26016X   26159.84238372  .00043294  00000+0  13373-2 0  9993
2 67582  97.2843 219.9664 0001032  77.6599 282.4759 15.33407247 20835
STARLINK-36577          
1 67583U 26016Y   26159.73631766  .00024939  00000+0  77212-3 0  9994
2 67583  97.2829 219.9560 0000490 169.7311 190.3941 15.33450844 20827
STARLINK-36419          
1 67584U 26016Z   26159.74719838  .00025177  00000+0  77890-3 0  9990
2 67584  97.2842 219.9417 0001104 219.2225 140.8938 15.33473015 20823
STARLINK-36560          
1 67585U 26016AA  26159.72816255  .00021040  00000+0  65214-3 0  9992
2 67585  97.2843 219.8172 0000358 225.0763 135.0451 15.33448901 20815
STARLINK-36641          
1 67589U 26018A   26159.72525572  .00020469  00000+0  63445-3 0  9995
2 67589  97.2853 224.6142 0000757 116.4047 243.7273 15.33455512 21289
STARLINK-36376          
1 67590U 26018B   26159.44520051  .00019532  00000+0  60604-3 0  9996
2 67590  97.2845 224.3835 0000443 101.3952 258.7341 15.33430183 21243
STARLINK-36391          
1 67591U 26018C   26159.73885410  .00022089  00000+0  68458-3 0  9998
2 67591  97.2841 224.6006 0000735  57.7719 302.3595 15.33443774 21283
