OBJECT_NAME,OBJECT_ID,EPOCH,MEAN_MOTION,ECCENTRICITY,INCLINATION,RA_OF_ASC_NODE,ARG_OF_PERICENTER,MEAN_ANOMALY,EPHEMERIS_TYPE,CLASSIFICATION_TYPE,NORAD_CAT_ID,ELEMENT_SET_NO,REV_AT_EPOCH,BSTAR,MEAN_MOTION_DOT,MEAN_MOTION_DDOT
STARLINK-36559,2026-014Z,2026-06-08T20:09:33.676704,15.33422160,.0002085,97.2890,46.6984,86.9207,273.2274,0,U,67555,999,2274,.58704E-3,.18911E-3,0
STARLINK-36426,2026-014AA,2026-06-08T09:58:44.039136,15.33490881,.0000215,97.2861,46.3556,151.8225,208.3029,0,U,67560,999,2268,.37988E-3,.12226E-3,0
STARLINK-36621,2026-016A,2026-06-08T17:36:23.014944,15.33454330,.00002,97.2821,219.8058,269.1797,90.9423,0,U,67561,999,2081,.72397E-3,.23376E-3,0
STARLINK-36398,2026-016B,2026-06-08T17:48:07.710624,15.33448387,.0000875,97.2859,219.9448,214.6280,145.4905,0,U,67562,999,2082,.66988E-3,.21615E-3,0
STARLINK-36403,2026-016C,2026-06-08T10:25:42.096000,15.33439343,.0001047,97.2855,219.5997,98.9932,261.1429,0,U,67563,999,2077,.44006E-3,.14156E-3,0
STARLINK-36593,2026-016D,2026-06-08T10:33:31.900320,15.33443857,.000073,97.2845,219.5916,99.1895,260.9431,0,U,67564,999,2077,.47225E-3,.15201E-3,0
STARLINK-35725,2026-016E,2026-06-08T20:24:44.515008,15.33459868,.0000973,97.2848,219.9533,142.9114,217.2196,0,U,67565,999,2083,.72158E-3,.23303E-3,0
STARLINK-36394,2026-016F,2026-06-08T17:20:43.204128,15.33455242,.0001658,97.2843,219.8207,282.0815,78.0242,0,U,67566,999,2081,.67366E-3,.21743E-3,0
STARLINK-36352,2026-016G,2026-06-08T10:17:52.060128,15.33436555,.0000538,97.2848,219.6092,108.6035,251.5266,0,U,67567,999,2077,.53371E-3,.1719E-3,0
STARLINK-36435,2026-016H,2026-06-08T17:52:02.773056,15.33447516,.0000973,97.2826,219.9487,118.7373,241.3967,0,U,67568,999,2082,.57161E-3,.18425E-3,0
STARLINK-36575,2026-016J,2026-06-08T17:38:30.754752,15.33452536,.0000372,97.2835,220.8702,121.8358,238.2921,0,U,67569,999,2088,.81809E-3,.26434E-3,0
STARLINK-36562,2026-016K,2026-06-08T03:58:04.745280,15.33438064,.0000467,97.2838,219.3571,203.1017,157.0205,0,U,67570,999,2073,.63229E-3,.20388E-3,0
STARLINK-36578,2026-016L,2026-06-08T17:24:38.259648,15.33447877,.0000793,97.2843,219.8181,219.9559,140.1626,0,U,67571,999,2081,.65918E-3,.21268E-3,0
STARLINK-36350,2026-016M,2026-06-08T17:08:58.782336,15.33446527,.0000552,97.2849,219.8327,125.9317,234.1977,0,U,67572,999,2081,.67947E-3,.21925E-3,0
STARLINK-36588,2026-016N,2026-06-08T17:12:51.779808,15.33479639,.0000411,97.2859,219.8278,317.9419,42.1792,0,U,67573,999,2081,.80561E-3,.26051E-3,0
STARLINK-36594,2026-016P,2026-06-08T17:59:52.749312,15.33453647,.0000877,97.2842,219.9385,98.8404,261.2938,0,U,67574,999,2082,.96923E-3,.31354E-3,0
STARLINK-36400,2026-016Q,2026-06-08T10:37:26.859072,15.33443887,.0000964,97.2845,219.5917,88.2296,271.9057,0,U,67575,999,2077,.46178E-3,.14862E-3,0
STARLINK-36591,2026-016R,2026-06-08T04:05:54.794112,15.33439081,.000063,97.2841,219.3494,143.6237,216.5049,0,U,67576,999,2073,.6394E-3,.20619E-3,0
STARLINK-36590,2026-016S,2026-06-08T20:05:09.856032,15.33455015,.0000679,97.2869,219.9757,175.7697,184.3552,0,U,67577,999,2083,.64327E-3,.20756E-3,0
STARLINK-36613,2026-016T,2026-06-08T17:32:28.262688,15.33459041,.0000247,97.2842,219.8129,175.3429,184.7816,0,U,67578,999,2081,.99943E-3,.32343E-3,0
STARLINK-36571,2026-016U,2026-06-08T17:01:08.818176,15.33453662,.0000351,97.2865,219.8420,134.5039,225.6233,0,U,67579,999,2081,.67544E-3,.21799E-3,0
STARLINK-36612,2026-016V,2026-06-08T17:44:12.727680,15.33454020,.0001128,97.2809,219.9531,94.8697,265.2674,0,U,67580,999,2082,.77166E-3,.24926E-3,0
STARLINK-36632,2026-016W,2026-06-08T10:29:37.110048,15.33440028,.0001074,97.2855,219.5985,88.3445,271.7921,0,U,67581,999,2077,.49964E-3,.16087E-3,0
STARLINK-36609,2026-016X,2026-06-08T20:13:01.953408,15.33407247,.0001032,97.2843,219.9664,77.6599,282.4759,0,U,67582,999,2083,.13373E-2,.43294E-3,0
STARLINK-36577,2026-016Y,2026-06-08T17:40:17.845824,15.33450844,.000049,97.2829,219.9560,169.7311,190.3941,0,U,67583,999,2082,.77212E-3,.24939E-3,0
STARLINK-36419,2026-016Z,2026-06-08T17:55:57.940032,15.33473015,.0001104,97.2842,219.9417,219.2225,140.8938,0,U,67584,999,2082,.7789E-3,.25177E-3,0
STARLINK-36560,2026-016AA,2026-06-08T17:28:33.244320,15.33448901,.0000358,97.2843,219.8172,225.0763,135.0451,0,U,67585,999,2081,.65214E-3,.2104E-3,0
STARLINK-36641,2026-018A,2026-06-08T17:24:22.094208,15.33455512,.0000757,97.2853,224.6142,116.4047,243.7273,0,U,67589,999,2128,.63445E-3,.20469E-3,0
STARLINK-36376,2026-018B,2026-06-08T10:41:05.324064,15.33430183,.0000443,97.2845,224.3835,101.3952,258.7341,0,U,67590,999,2124,.60604E-3,.19532E-3,0
STARLINK-36391,2026-018C,2026-06-08T17:43:56.994240,15.33443774,.0000735,97.2841,224.6006,57.7719,302.3595,0,U,67591,999,2128,.68458E-3,.22089E-3,0
